[
    {
        "Altitude(m)": 707287.5603250928,
        "Argument of Periapsis(deg)": 0.011390121186627068,
        "Eccentricity": 0.0,
        "Inclination(deg)": 45.0,
        "Latitude(deg)": 45.05564092294807,
        "Longitude(deg)": 83.98155638562552,
        "Mean Anomaly(deg)": 93.35141664748083,
        "RAAN(deg)": 89.98924805854179,
        "Satellite Name": "Constellation 1 401",
        "Satellite Number": 401,
        "Semi-Major Axis(m)": 7083131.272910544,
        "Time(s)": 190
    },
    {
        "Altitude(m)": 707286.752759668,
        "Argument of Periapsis(deg)": 0.011450069192872472,
        "Eccentricity": 0.0,
        "Inclination(deg)": 45.0,
        "Latitude(deg)": 45.05204324841198,
        "Longitude(deg)": 84.06304078102313,
        "Mean Anomaly(deg)": 93.41211778773072,
        "RAAN(deg)": 89.98919146937624,
        "Satellite Name": "Constellation 1 401",
        "Satellite Number": 401,
        "Semi-Major Axis(m)": 7083131.272910544,
        "Time(s)": 191
    },
    {
        "Altitude(m)": 707285.9306901747,
        "Argument of Periapsis(deg)": 0.01151001719911788,
        "Eccentricity": 0.0,
        "Inclination(deg)": 45.0,
        "Latitude(deg)": 45.048381458587805,
        "Longitude(deg)": 84.1445143563264,
        "Mean Anomaly(deg)": 93.47281892798063,
        "RAAN(deg)": 89.98913488021066,
        "Satellite Name": "Constellation 1 401",
        "Satellite Number": 401,
        "Semi-Major Axis(m)": 7083131.272910544,
        "Time(s)": 192
    },
    {
        "Altitude(m)": 707285.0941214474,
        "Argument of Periapsis(deg)": 0.011569965205363285,
        "Eccentricity": 0.0,
        "Inclination(deg)": 45.0,
        "Latitude(deg)": 45.04465556969718,
        "Longitude(deg)": 84.22597675515664,
        "Mean Anomaly(deg)": 93.53352006823053,
        "RAAN(deg)": 89.98907829104509,
        "Satellite Name": "Constellation 1 401",
        "Satellite Number": 401,
        "Semi-Major Axis(m)": 7083131.272910544,
        "Time(s)": 193
    },
    {
        "Altitude(m)": 707284.2430584192,
        "Argument of Periapsis(deg)": 0.01162991321160869,
        "Eccentricity": 0.0,
        "Inclination(deg)": 45.0,
        "Latitude(deg)": 45.04086559824062,
        "Longitude(deg)": 84.30742812562299,
        "Mean Anomaly(deg)": 93.59422120848046,
        "RAAN(deg)": 89.98902170187951,
        "Satellite Name": "Constellation 1 401",
        "Satellite Number": 401,
        "Semi-Major Axis(m)": 7083131.272910544,
        "Time(s)": 194
    },
    {
        "Altitude(m)": 707283.3775060994,
        "Argument of Periapsis(deg)": 0.011689861217854095,
        "Eccentricity": 0.0,
        "Inclination(deg)": 45.0,
        "Latitude(deg)": 45.03701156099673,
        "Longitude(deg)": 84.3888681117412,
        "Mean Anomaly(deg)": 93.65492234873032,
        "RAAN(deg)": 89.98896511271394,
        "Satellite Name": "Constellation 1 401",
        "Satellite Number": 401,
        "Semi-Major Axis(m)": 7083131.272910544,
        "Time(s)": 195
    },
    {
        "Altitude(m)": 707282.4974695873,
        "Argument of Periapsis(deg)": 0.0117498092240995,
        "Eccentricity": 0.0,
        "Inclination(deg)": 45.0,
        "Latitude(deg)": 45.03309347502209,
        "Longitude(deg)": 84.47029652582695,
        "Mean Anomaly(deg)": 93.71562348898023,
        "RAAN(deg)": 89.98890852354837,
        "Satellite Name": "Constellation 1 401",
        "Satellite Number": 401,
        "Semi-Major Axis(m)": 7083131.272910544,
        "Time(s)": 196
    },
    {
        "Altitude(m)": 707281.6029540603,
        "Argument of Periapsis(deg)": 0.011809757230344905,
        "Eccentricity": 0.0,
        "Inclination(deg)": 45.0,
        "Latitude(deg)": 45.02911135765095,
        "Longitude(deg)": 84.55171318040125,
        "Mean Anomaly(deg)": 93.77632462923012,
        "RAAN(deg)": 89.98885193438281,
        "Satellite Name": "Constellation 1 401",
        "Satellite Number": 401,
        "Semi-Major Axis(m)": 7083131.272910544,
        "Time(s)": 197
    },
    {
        "Altitude(m)": 707280.6939647878,
        "Argument of Periapsis(deg)": 0.011869705236590313,
        "Eccentricity": 0.0,
        "Inclination(deg)": 45.0,
        "Latitude(deg)": 45.02506522649461,
        "Longitude(deg)": 84.63311788819371,
        "Mean Anomaly(deg)": 93.83702576948002,
        "RAAN(deg)": 89.98879534521724,
        "Satellite Name": "Constellation 1 401",
        "Satellite Number": 401,
        "Semi-Major Axis(m)": 7083131.272910544,
        "Time(s)": 198
    },
    {
        "Altitude(m)": 707279.7705071216,
        "Argument of Periapsis(deg)": 0.011929653242835719,
        "Eccentricity": 0.0,
        "Inclination(deg)": 45.0,
        "Latitude(deg)": 45.020955099441416,
        "Longitude(deg)": 84.7145104621458,
        "Mean Anomaly(deg)": 93.89772690972993,
        "RAAN(deg)": 89.98873875605167,
        "Satellite Name": "Constellation 1 401",
        "Satellite Number": 401,
        "Semi-Major Axis(m)": 7083131.272910544,
        "Time(s)": 199
    }
]